[{"OBJECT_NAME":"STARLINK-36862","OBJECT_ID":"2026-039T","EPOCH":"2026-03-05T22:00:01.999584","MEAN_MOTION":15.9790475,"ECCENTRICITY":0.00018129,"INCLINATION":42.998,"RA_OF_ASC_NODE":78.2271,"ARG_OF_PERICENTER":265.6178,"MEAN_ANOMALY":158.055,"EPHEMERIS_TYPE":0,"CLASSIFICATION_TYPE":"U","NORAD_CAT_ID":68003,"ELEMENT_SET_NO":999,"REV_AT_EPOCH":227,"BSTAR":-0.0030275833,"MEAN_MOTION_DOT":-0.01428173,"MEAN_MOTION_DDOT":0.00061535215},{"OBJECT_NAME":"STARLINK-36888","OBJECT_ID":"2026-039U","EPOCH":"2026-03-05T22:00:01.999584","MEAN_MOTION":15.97506511,"ECCENTRICITY":0.00017968,"INCLINATION":42.9981,"RA_OF_ASC_NODE":78.2412,"ARG_OF_PERICENTER":265.2752,"MEAN_ANOMALY":153.0423,"EPHEMERIS_TYPE":0,"CLASSIFICATION_TYPE":"U","NORAD_CAT_ID":68004,"ELEMENT_SET_NO":999,"REV_AT_EPOCH":227,"BSTAR":-0.0031119377,"MEAN_MOTION_DOT":-0.01435641,"MEAN_MOTION_DDOT":0.00061869622},{"OBJECT_NAME":"STARLINK-36910","OBJECT_ID":"2026-039V","EPOCH":"2026-03-05T22:00:01.999584","MEAN_MOTION":15.9778214,"ECCENTRICITY":0.000183,"INCLINATION":42.998,"RA_OF_ASC_NODE":78.2313,"ARG_OF_PERICENTER":267.3516,"MEAN_ANOMALY":154.7165,"EPHEMERIS_TYPE":0,"CLASSIFICATION_TYPE":"U","NORAD_CAT_ID":68005,"ELEMENT_SET_NO":999,"REV_AT_EPOCH":227,"BSTAR":-0.0030581885,"MEAN_MOTION_DOT":-0.01432717,"MEAN_MOTION_DDOT":0.000618157},{"OBJECT_NAME":"STARLINK-36889","OBJECT_ID":"2026-039W","EPOCH":"2026-03-05T22:00:01.999584","MEAN_MOTION":15.98030859,"ECCENTRICITY":0.00017701,"INCLINATION":42.998,"RA_OF_ASC_NODE":78.2225,"ARG_OF_PERICENTER":269.9344,"MEAN_ANOMALY":155.4393,"EPHEMERIS_TYPE":0,"CLASSIFICATION_TYPE":"U","NORAD_CAT_ID":68006,"ELEMENT_SET_NO":999,"REV_AT_EPOCH":227,"BSTAR":-0.0029890275,"MEAN_MOTION_DOT":-0.01420053,"MEAN_MOTION_DDOT":0.00060974949},{"OBJECT_NAME":"STARLINK-36592","OBJECT_ID":"2026-039X","EPOCH":"2026-03-05T22:00:01.999584","MEAN_MOTION":15.98162085,"ECCENTRICITY":0.00018082,"INCLINATION":42.9979,"RA_OF_ASC_NODE":78.2188,"ARG_OF_PERICENTER":265.3509,"MEAN_ANOMALY":161.7085,"EPHEMERIS_TYPE":0,"CLASSIFICATION_TYPE":"U","NORAD_CAT_ID":68007,"ELEMENT_SET_NO":999,"REV_AT_EPOCH":227,"BSTAR":-0.0029716724,"MEAN_MOTION_DOT":-0.01422208,"MEAN_MOTION_DDOT":0.00061229101},{"OBJECT_NAME":"STARLINK-36911","OBJECT_ID":"2026-039Y","EPOCH":"2026-03-05T22:00:01.999584","MEAN_MOTION":15.98291825,"ECCENTRICITY":0.00019104,"INCLINATION":42.9979,"RA_OF_ASC_NODE":78.2141,"ARG_OF_PERICENTER":263.6343,"MEAN_ANOMALY":165.2268,"EPHEMERIS_TYPE":0,"CLASSIFICATION_TYPE":"U","NORAD_CAT_ID":68008,"ELEMENT_SET_NO":999,"REV_AT_EPOCH":227,"BSTAR":-0.0029397239,"MEAN_MOTION_DOT":-0.01417287,"MEAN_MOTION_DDOT":0.00060923907},{"OBJECT_NAME":"STARLINK-36956","OBJECT_ID":"2026-039Z","EPOCH":"2026-03-05T22:00:01.999584","MEAN_MOTION":15.98419799,"ECCENTRICITY":0.00016588,"INCLINATION":42.9978,"RA_OF_ASC_NODE":78.2096,"ARG_OF_PERICENTER":269.0627,"MEAN_ANOMALY":161.4995,"EPHEMERIS_TYPE":0,"CLASSIFICATION_TYPE":"U","NORAD_CAT_ID":68009,"ELEMENT_SET_NO":999,"REV_AT_EPOCH":227,"BSTAR":-0.0029045183,"MEAN_MOTION_DOT":-0.01410434,"MEAN_MOTION_DDOT":0.0006046569},{"OBJECT_NAME":"STARLINK-36953","OBJECT_ID":"2026-039AA","EPOCH":"2026-03-05T22:00:01.999584","MEAN_MOTION":15.98694736,"ECCENTRICITY":0.00018125,"INCLINATION":42.9977,"RA_OF_ASC_NODE":78.2,"ARG_OF_PERICENTER":265.2275,"MEAN_ANOMALY":169.0796,"EPHEMERIS_TYPE":0,"CLASSIFICATION_TYPE":"U","NORAD_CAT_ID":68010,"ELEMENT_SET_NO":999,"REV_AT_EPOCH":227,"BSTAR":-0.0028655403,"MEAN_MOTION_DOT":-0.01413237,"MEAN_MOTION_DDOT":0.00060862656},{"OBJECT_NAME":"STARLINK-36991","OBJECT_ID":"2026-039AB","EPOCH":"2026-03-05T22:00:01.999584","MEAN_MOTION":15.98825002,"ECCENTRICITY":0.00018226,"INCLINATION":42.9977,"RA_OF_ASC_NODE":78.1954,"ARG_OF_PERICENTER":266.9174,"MEAN_ANOMALY":169.2244,"EPHEMERIS_TYPE":0,"CLASSIFICATION_TYPE":"U","NORAD_CAT_ID":68011,"ELEMENT_SET_NO":999,"REV_AT_EPOCH":227,"BSTAR":-0.002830792,"MEAN_MOTION_DOT":-0.01406496,"MEAN_MOTION_DDOT":0.00060414219},{"OBJECT_NAME":"STARLINK-36936","OBJECT_ID":"2026-039AC","EPOCH":"2026-03-05T22:00:01.999584","MEAN_MOTION":15.99097871,"ECCENTRICITY":0.0001882,"INCLINATION":42.9978,"RA_OF_ASC_NODE":78.1859,"ARG_OF_PERICENTER":267.84,"MEAN_ANOMALY":171.8856,"EPHEMERIS_TYPE":0,"CLASSIFICATION_TYPE":"U","NORAD_CAT_ID":68012,"ELEMENT_SET_NO":999,"REV_AT_EPOCH":227,"BSTAR":-0.0028097055,"MEAN_MOTION_DOT":-0.01417637,"MEAN_MOTION_DDOT":0.00061473024},{"OBJECT_NAME":"STARLINK-36967","OBJECT_ID":"2026-039AD","EPOCH":"2026-03-05T22:00:01.999584","MEAN_MOTION":15.9855415,"ECCENTRICITY":0.00017881,"INCLINATION":42.9976,"RA_OF_ASC_NODE":78.2046,"ARG_OF_PERICENTER":266.2381,"MEAN_ANOMALY":166.1323,"EPHEMERIS_TYPE":0,"CLASSIFICATION_TYPE":"U","NORAD_CAT_ID":68013,"ELEMENT_SET_NO":999,"REV_AT_EPOCH":227,"BSTAR":-0.0028828749,"MEAN_MOTION_DOT":-0.01410585,"MEAN_MOTION_DDOT":0.00060563304},{"OBJECT_NAME":"STARLINK-36985","OBJECT_ID":"2026-039AE","EPOCH":"2026-03-05T22:00:01.999584","MEAN_MOTION":15.98959158,"ECCENTRICITY":0.00017911,"INCLINATION":42.9978,"RA_OF_ASC_NODE":78.1909,"ARG_OF_PERICENTER":271.1833,"MEAN_ANOMALY":166.687,"EPHEMERIS_TYPE":0,"CLASSIFICATION_TYPE":"U","NORAD_CAT_ID":68014,"ELEMENT_SET_NO":999,"REV_AT_EPOCH":227,"BSTAR":-0.0028288309,"MEAN_MOTION_DOT":-0.01416101,"MEAN_MOTION_DDOT":0.00061260475}]
